OBJECT_NAME,OBJECT_ID,EPOCH,MEAN_MOTION,ECCENTRICITY,INCLINATION,RA_OF_ASC_NODE,ARG_OF_PERICENTER,MEAN_ANOMALY,EPHEMERIS_TYPE,CLASSIFICATION_TYPE,NORAD_CAT_ID,ELEMENT_SET_NO,REV_AT_EPOCH,BSTAR,MEAN_MOTION_DOT,MEAN_MOTION_DDOT
ONEWEB-0635,2023-043AG,2026-07-15T03:11:52.544256,13.15547793,.0001784,87.8991,253.6262,97.5138,262.6195,0,U,56076,999,16010,.23698E-3,.102E-5,0
ONEWEB-0636,2023-043AH,2026-07-15T03:00:27.540864,13.15547802,.0001877,87.8991,253.6333,96.6575,263.4769,0,U,56077,999,16008,-.18227E-3,-.56E-6,0
ONEWEB-0637,2023-043AJ,2026-07-15T02:51:20.152800,13.15548226,.0001961,87.8982,253.6491,89.6959,270.4396,0,U,56078,999,16010,-.16631E-3,-.5E-6,0
ONEWEB-0647,2023-043AK,2026-07-15T02:44:29.224032,13.15549444,.0001954,87.8982,253.6631,101.0928,259.0422,0,U,56079,999,16009,-.16068E-3,-.48E-6,0
ONEWEB-0651,2023-043AL,2026-07-15T04:27:10.442592,13.15548226,.0001852,87.8984,253.6417,93.1702,266.9640,0,U,56080,999,16130,.36886E-4,.27E-6,0
ONEWEB-0718,2023-043AM,2026-07-15T04:20:19.157856,13.15549569,.0002528,87.8989,253.6231,92.6967,267.4453,0,U,56081,999,16011,-.15934E-3,-.47E-6,0
ONEWEB-0561,2023-068A,2026-07-15T03:38:45.900096,13.20770193,.000175,87.9185,268.8713,104.3158,255.8170,0,U,56710,999,15319,.34316E-3,.153E-5,0
ONEWEB-0668,2023-068B,2026-07-15T02:12:12.492000,13.16595793,.0002367,87.9081,223.2293,79.4370,280.7028,0,U,56711,999,15545,.24608E-3,.107E-5,0
ONEWEB-0676,2023-068C,2026-07-15T02:23:37.130784,13.16594545,.0001733,87.9080,223.2343,91.7435,268.3895,0,U,56712,999,15537,-.98701E-4,-.25E-6,0
ONEWEB-0677,2023-068D,2026-07-15T03:21:49.037760,13.20772166,.0001856,87.9185,268.8644,89.1393,270.9953,0,U,56713,999,15349,.13817E-3,.69E-6,0
ONEWEB-0678,2023-068E,2026-07-15T03:34:41.750976,13.15548200,.0002036,87.8994,253.6244,105.5263,254.6092,0,U,56714,999,15296,.52673E-3,.211E-5,0
ONEWEB-0679,2023-068F,2026-07-15T03:13:46.229376,13.16594054,.0001965,87.9079,223.2187,77.7222,282.4128,0,U,56715,999,15540,.17828E-3,.81E-6,0
ONEWEB-0680,2023-068G,2026-07-15T04:18:07.676928,13.21825674,.0002244,87.9242,238.4023,80.9680,279.1708,0,U,56716,999,15479,-.10768E-3,-.31E-6,0
ONEWEB-0681,2023-068H,2026-07-15T03:50:15.943200,13.21827550,.0001096,87.9238,238.4065,93.0592,267.0667,0,U,56717,999,15478,.19086E-3,.92E-6,0
ONEWEB-0682,2023-068J,2026-07-15T04:08:55.375296,13.15548257,.0002183,87.8994,253.6194,82.0489,278.0889,0,U,56718,999,15313,.1074E-4,.17E-6,0
ONEWEB-0683,2023-068K,2026-07-15T02:53:37.099392,13.15548583,.0002248,87.8994,253.6303,91.1111,269.0277,0,U,56719,999,15309,-.7747E-4,-.16E-6,0
ONEWEB-0684,2023-068L,2026-07-15T03:05:01.368384,13.15549588,.0003014,87.8991,253.6184,119.7990,240.3441,0,U,56720,999,15292,.10675E-3,.53E-6,0
ONEWEB-0686,2023-068M,2026-07-15T02:16:46.753248,13.16594195,.0002415,87.9074,223.2473,92.6808,267.4599,0,U,56721,999,15538,.16982E-3,.78E-6,0
ONEWEB-0694,2023-068N,2026-07-15T02:25:53.907168,13.16593662,.0002286,87.9092,223.2162,82.3292,277.8098,0,U,56722,999,15544,-.91824E-4,-.22E-6,0
ONEWEB-0696,2023-068P,2026-07-15T03:52:56.115840,13.15549929,.0002077,87.8986,253.6478,113.0184,247.1165,0,U,56723,999,15304,.32457E-3,.135E-5,0
ONEWEB-0703,2023-068Q,2026-07-15T04:06:37.761696,13.15548199,.0001761,87.8988,253.6271,124.7288,235.4009,0,U,56724,999,15293,.10653E-3,.53E-6,0
ONEWEB-0721,2023-068R,2026-07-15T01:23:40.215840,13.22471050,.0001762,86.6743,76.6187,80.0889,280.0443,0,U,56725,999,16162,.6265E-4,.41E-6,0
ONEWEB-0015,2024-188A,2026-07-15T00:07:28.474752,13.11418727,.0001523,87.8883,15.5528,75.2785,284.8512,0,U,61594,999,8810,-.39729E-3,-.128E-5,0
ONEWEB-0687,2024-188B,2026-07-15T00:33:43.164864,13.17650356,.0001971,87.9138,0.3371,77.8558,282.2794,0,U,61595,999,8956,.13243E-4,.18E-6,0
ONEWEB-0688,2024-188C,2026-07-14T23:25:39.692640,13.17650668,.0001186,87.9140,0.3465,51.9808,308.1431,0,U,61596,999,8955,.91177E-4,.48E-6,0
ONEWEB-0689,2024-188D,2026-07-15T00:56:18.514752,13.11415224,.000209,87.8895,15.5077,85.9327,274.2040,0,U,61597,999,8810,.90149E-3,.332E-5,0
ONEWEB-0690,2024-188E,2026-07-15T01:10:57.507744,13.11414940,.0001585,87.8891,15.5163,110.9276,249.2022,0,U,61598,999,8828,-.35472E-3,-.113E-5,0
ONEWEB-0691,2024-188F,2026-07-14T23:13:46.305984,13.11414206,.0001698,87.8901,15.4437,79.5615,280.5704,0,U,61599,999,8812,.1348E-3,.6E-6,0
ONEWEB-0692,2024-188G,2026-07-15T01:32:54.839904,13.11417613,.0002614,87.8882,15.5326,95.6168,264.5258,0,U,61600,999,8812,-.14804E-2,-.512E-5,0
ONEWEB-0693,2024-188H,2026-07-14T23:42:41.478912,13.17650466,.0001402,87.9137,0.3626,116.6566,243.4710,0,U,61601,999,8954,.74513E-4,.42E-6,0
ONEWEB-0695,2024-188J,2026-07-15T00:58:45.501888,13.11414659,.0002361,87.8881,15.5292,88.1014,272.0385,0,U,61602,999,8811,.68291E-3,.255E-5,0
