ONEWEB-0635             
1 56076U 23043AG  26196.13324704  .00000102  00000+0  23698-3 0  9997
2 56076  87.8991 253.6262 0001784  97.5138 262.6195 13.15547793160101
ONEWEB-0636             
1 56077U 23043AH  26196.12531876 -.00000056  00000+0 -18227-3 0  9999
2 56077  87.8991 253.6333 0001877  96.6575 263.4769 13.15547802160083
ONEWEB-0637             
1 56078U 23043AJ  26196.11898325 -.00000050  00000+0 -16631-3 0  9995
2 56078  87.8982 253.6491 0001961  89.6959 270.4396 13.15548226160109
ONEWEB-0647             
1 56079U 23043AK  26196.11422713 -.00000048  00000+0 -16068-3 0  9991
2 56079  87.8982 253.6631 0001954 101.0928 259.0422 13.15549444160097
ONEWEB-0651             
1 56080U 23043AL  26196.18553753  .00000027  00000+0  36886-4 0  9995
2 56080  87.8984 253.6417 0001852  93.1702 266.9640 13.15548226161302
ONEWEB-0718             
1 56081U 23043AM  26196.18077729 -.00000047  00000+0 -15934-3 0  9994
2 56081  87.8989 253.6231 0002528  92.6967 267.4453 13.15549569160117
ONEWEB-0561             
1 56710U 23068A   26196.15192014  .00000153  00000+0  34316-3 0  9993
2 56710  87.9185 268.8713 0001750 104.3158 255.8170 13.20770193153199
ONEWEB-0668             
1 56711U 23068B   26196.09181125  .00000107  00000+0  24608-3 0  9990
2 56711  87.9081 223.2293 0002367  79.4370 280.7028 13.16595793155452
ONEWEB-0676             
1 56712U 23068C   26196.09973531 -.00000025  00000+0 -98701-4 0  9998
2 56712  87.9080 223.2343 0001733  91.7435 268.3895 13.16594545155372
ONEWEB-0677             
1 56713U 23068D   26196.14015090  .00000069  00000+0  13817-3 0  9992
2 56713  87.9185 268.8644 0001856  89.1393 270.9953 13.20772166153495
ONEWEB-0678             
1 56714U 23068E   26196.14909434  .00000211  00000+0  52673-3 0  9999
2 56714  87.8994 253.6244 0002036 105.5263 254.6092 13.15548200152969
ONEWEB-0679             
1 56715U 23068F   26196.13456284  .00000081  00000+0  17828-3 0  9997
2 56715  87.9079 223.2187 0001965  77.7222 282.4128 13.16594054155409
ONEWEB-0680             
1 56716U 23068G   26196.17925552 -.00000031  00000+0 -10768-3 0  9994
2 56716  87.9242 238.4023 0002244  80.9680 279.1708 13.21825674154793
ONEWEB-0681             
1 56717U 23068H   26196.15990675  .00000092  00000+0  19086-3 0  9998
2 56717  87.9238 238.4065 0001096  93.0592 267.0667 13.21827550154780
ONEWEB-0682             
1 56718U 23068J   26196.17286314  .00000017  00000+0  10740-4 0  9995
2 56718  87.8994 253.6194 0002183  82.0489 278.0889 13.15548257153135
ONEWEB-0683             
1 56719U 23068K   26196.12056828 -.00000016  00000+0 -77470-4 0  9990
2 56719  87.8994 253.6303 0002248  91.1111 269.0277 13.15548583153091
ONEWEB-0684             
1 56720U 23068L   26196.12848806  .00000053  00000+0  10675-3 0  9999
2 56720  87.8991 253.6184 0003014 119.7990 240.3441 13.15549588152923
ONEWEB-0686             
1 56721U 23068M   26196.09498557  .00000078  00000+0  16982-3 0  9994
2 56721  87.9074 223.2473 0002415  92.6808 267.4599 13.16594195155384
ONEWEB-0694             
1 56722U 23068N   26196.10131837 -.00000022  00000+0 -91824-4 0  9992
2 56722  87.9092 223.2162 0002286  82.3292 277.8098 13.16593662155443
ONEWEB-0696             
1 56723U 23068P   26196.16176060  .00000135  00000+0  32457-3 0  9995
2 56723  87.8986 253.6478 0002077 113.0184 247.1165 13.15549929153047
ONEWEB-0703             
1 56724U 23068Q   26196.17127039  .00000053  00000+0  10653-3 0  9992
2 56724  87.8988 253.6271 0001761 124.7288 235.4009 13.15548199152936
ONEWEB-0721             
1 56725U 23068R   26196.05810435  .00000041  00000+0  62650-4 0  9991
2 56725  86.6743  76.6187 0001762  80.0889 280.0443 13.22471050161627
ONEWEB-0015             
1 61594U 24188A   26196.00519068 -.00000128  00000+0 -39729-3 0  9996
2 61594  87.8883  15.5528 0001523  75.2785 284.8512 13.11418727 88102
ONEWEB-0687             
1 61595U 24188B   26196.02341626  .00000018  00000+0  13243-4 0  9992
2 61595  87.9138   0.3371 0001971  77.8558 282.2794 13.17650356 89565
ONEWEB-0688             
1 61596U 24188C   26195.97615385  .00000048  00000+0  91177-4 0  9997
2 61596  87.9140   0.3465 0001186  51.9808 308.1431 13.17650668 89553
ONEWEB-0689             
1 61597U 24188D   26196.03910318  .00000332  00000+0  90149-3 0  9993
2 61597  87.8895  15.5077 0002090  85.9327 274.2040 13.11415224 88105
ONEWEB-0690             
1 61598U 24188E   26196.04927671 -.00000113  00000+0 -35472-3 0  9992
2 61598  87.8891  15.5163 0001585 110.9276 249.2022 13.11414940 88283
ONEWEB-0691             
1 61599U 24188F   26195.96789706  .00000060  00000+0  13480-3 0  9992
2 61599  87.8901  15.4437 0001698  79.5615 280.5704 13.11414206 88124
ONEWEB-0692             
1 61600U 24188G   26196.06452361 -.00000512  00000+0 -14804-2 0  9995
2 61600  87.8882  15.5326 0002614  95.6168 264.5258 13.11417613 88125
ONEWEB-0693             
1 61601U 24188H   26195.98798008  .00000042  00000+0  74513-4 0  9998
2 61601  87.9137   0.3626 0001402 116.6566 243.4710 13.17650466 89542
ONEWEB-0695             
1 61602U 24188J   26196.04080442  .00000255  00000+0  68291-3 0  9994
2 61602  87.8881  15.5292 0002361  88.1014 272.0385 13.11414659 88115
